{
  "type": "FeatureCollection",
  "features": [
    {
      "type": "Feature",
      "properties": {
        "norad_id": 40376,
        "name": "SMAP",
        "group": "resource",
        "lat": 26.29098461216618,
        "lon": -177.0977384733593,
        "alt_km": 681.0360675198626,
        "timestamp": "2025-12-20T05:41:49.675446+00:00",
        "meta_object_name": "SMAP",
        "meta_object_id": "2015-003A",
        "meta_epoch": "2025-12-19T22:26:04.978176",
        "meta_mean_motion": 14.63353412,
        "meta_eccentricity": 0.00012217,
        "meta_inclination": 98.1288,
        "meta_ra_of_asc_node": 358.5549,
        "meta_arg_of_pericenter": 91.7059,
        "meta_mean_anomaly": 268.4283,
        "meta_ephemeris_type": 0,
        "meta_classification_type": "U",
        "meta_norad_cat_id": 40376,
        "meta_element_set_no": 999,
        "meta_rev_at_epoch": 58140,
        "meta_bstar": 8.0878384e-05,
        "meta_mean_motion_dot": 3.71e-06,
        "meta_mean_motion_ddot": 0,
        "tle_line1": "1 40376U 15003A   25353.93477984  .00000371  00000+0  80878-4 0  9993",
        "tle_line2": "2 40376  98.1288 358.5549 0001221  91.7059 268.4283 14.63353412581407"
      },
      "geometry": {
        "type": "Point",
        "coordinates": [
          -177.0977384733593,
          26.29098461216618
        ]
      }
    },
    {
      "type": "Feature",
      "properties": {
        "norad_id": 40536,
        "name": "KOMPSAT-3A",
        "group": "resource",
        "lat": -40.37919008080439,
        "lon": 142.4099406346985,
        "alt_km": 441.63626385219686,
        "timestamp": "2025-12-20T05:41:49.675457+00:00",
        "meta_object_name": "KOMPSAT-3A",
        "meta_object_id": "2015-014A",
        "meta_epoch": "2025-12-19T22:31:25.683744",
        "meta_mean_motion": 15.44194647,
        "meta_eccentricity": 0.0005419,
        "meta_inclination": 97.679,
        "meta_ra_of_asc_node": 328.6835,
        "meta_arg_of_pericenter": 111.0547,
        "meta_mean_anomaly": 249.128,
        "meta_ephemeris_type": 0,
        "meta_classification_type": "U",
        "meta_norad_cat_id": 40536,
        "meta_element_set_no": 999,
        "meta_rev_at_epoch": 59406,
        "meta_bstar": 0.00029302318,
        "meta_mean_motion_dot": 0.00013362,
        "meta_mean_motion_ddot": 0,
        "tle_line1": "1 40536U 15014A   25353.93849171  .00013362  00000+0  29302-3 0  9992",
        "tle_line2": "2 40536  97.6790 328.6835 0005419 111.0547 249.1280 15.44194647594066"
      },
      "geometry": {
        "type": "Point",
        "coordinates": [
          142.4099406346985,
          -40.37919008080439
        ]
      }
    },
    {
      "type": "Feature",
      "properties": {
        "norad_id": 40697,
        "name": "SENTINEL-2A",
        "group": "resource",
        "lat": -44.339581567357925,
        "lon": -121.81403574112667,
        "alt_km": 796.2672839803945,
        "timestamp": "2025-12-20T05:41:49.675468+00:00",
        "meta_object_name": "SENTINEL-2A",
        "meta_object_id": "2015-028A",
        "meta_epoch": "2025-12-19T21:56:09.640608",
        "meta_mean_motion": 14.30807056,
        "meta_eccentricity": 0.0001074,
        "meta_inclination": 98.5745,
        "meta_ra_of_asc_node": 66.3456,
        "meta_arg_of_pericenter": 88.4067,
        "meta_mean_anomaly": 271.7239,
        "meta_ephemeris_type": 0,
        "meta_classification_type": "U",
        "meta_norad_cat_id": 40697,
        "meta_element_set_no": 999,
        "meta_rev_at_epoch": 54809,
        "meta_bstar": -2.3922478e-05,
        "meta_mean_motion_dot": -1.06e-06,
        "meta_mean_motion_ddot": 0,
        "tle_line1": "1 40697U 15028A   25353.91400047 -.00000106  00000+0 -23922-4 0  9995",
        "tle_line2": "2 40697  98.5745  66.3456 0001074  88.4067 271.7239 14.30807056548092"
      },
      "geometry": {
        "type": "Point",
        "coordinates": [
          -121.81403574112667,
          -44.339581567357925
        ]
      }
    },
    {
      "type": "Feature",
      "properties": {
        "norad_id": 40701,
        "name": "GAOFEN-8",
        "group": "resource",
        "lat": -60.80469637423839,
        "lon": -173.26162892417764,
        "alt_km": 464.94059731766265,
        "timestamp": "2025-12-20T05:41:49.675478+00:00",
        "meta_object_name": "GAOFEN-8",
        "meta_object_id": "2015-030A",
        "meta_epoch": "2025-12-19T22:09:43.933824",
        "meta_mean_motion": 15.38783737,
        "meta_eccentricity": 0.00118921,
        "meta_inclination": 97.6902,
        "meta_ra_of_asc_node": 172.4147,
        "meta_arg_of_pericenter": 113.6641,
        "meta_mean_anomaly": 246.5853,
        "meta_ephemeris_type": 0,
        "meta_classification_type": "U",
        "meta_norad_cat_id": 40701,
        "meta_element_set_no": 999,
        "meta_rev_at_epoch": 58381,
        "meta_bstar": 0.00044023853,
        "meta_mean_motion_dot": 0.00016848,
        "meta_mean_motion_ddot": 0,
        "tle_line1": "1 40701U 15030A   25353.92342516  .00016848  00000+0  44024-3 0  9994",
        "tle_line2": "2 40701  97.6902 172.4147 0011892 113.6641 246.5853 15.38783737583816"
      },
      "geometry": {
        "type": "Point",
        "coordinates": [
          -173.26162892417764,
          -60.80469637423839
        ]
      }
    },
    {
      "type": "Feature",
      "properties": {
        "norad_id": 40718,
        "name": "CARBONITE 1 (CBNT-1)",
        "group": "resource",
        "lat": 16.965976380278168,
        "lon": -2.7026714556811275,
        "alt_km": 610.7375072064924,
        "timestamp": "2025-12-20T05:41:49.675489+00:00",
        "meta_object_name": "CARBONITE 1 (CBNT-1)",
        "meta_object_id": "2015-032D",
        "meta_epoch": "2025-12-19T22:29:14.944992",
        "meta_mean_motion": 14.82777585,
        "meta_eccentricity": 0.00149518,
        "meta_inclination": 97.6394,
        "meta_ra_of_asc_node": 174.6635,
        "meta_arg_of_pericenter": 157.8528,
        "meta_mean_anomaly": 202.3335,
        "meta_ephemeris_type": 0,
        "meta_classification_type": "U",
        "meta_norad_cat_id": 40718,
        "meta_element_set_no": 999,
        "meta_rev_at_epoch": 56277,
        "meta_bstar": 0.00029893883,
        "meta_mean_motion_dot": 2.37e-05,
        "meta_mean_motion_ddot": 0,
        "tle_line1": "1 40718U 15032D   25353.93697853  .00002370  00000+0  29894-3 0  9995",
        "tle_line2": "2 40718  97.6394 174.6635 0014951 157.8528 202.3335 14.82777585562777"
      },
      "geometry": {
        "type": "Point",
        "coordinates": [
          -2.7026714556811275,
          16.965976380278168
        ]
      }
    },
    {
      "type": "Feature",
      "properties": {
        "norad_id": 40878,
        "name": "YAOGAN-27",
        "group": "resource",
        "lat": 47.75709480335725,
        "lon": -27.801079493028915,
        "alt_km": 1199.8531095241196,
        "timestamp": "2025-12-20T05:41:49.675499+00:00",
        "meta_object_name": "YAOGAN-27",
        "meta_object_id": "2015-040A",
        "meta_epoch": "2025-12-19T22:09:07.251840",
        "meta_mean_motion": 13.1606065,
        "meta_eccentricity": 0.00075909,
        "meta_inclination": 100.1006,
        "meta_ra_of_asc_node": 343.2181,
        "meta_arg_of_pericenter": 268.8332,
        "meta_mean_anomaly": 91.1912,
        "meta_ephemeris_type": 0,
        "meta_classification_type": "U",
        "meta_norad_cat_id": 40878,
        "meta_element_set_no": 999,
        "meta_rev_at_epoch": 49408,
        "meta_bstar": -0.00065979375,
        "meta_mean_motion_dot": -2.93e-06,
        "meta_mean_motion_ddot": 0,
        "tle_line1": "1 40878U 15040A   25353.92300060 -.00000293  00000+0 -65979-3 0  9999",
        "tle_line2": "2 40878 100.1006 343.2181 0007590 268.8332  91.1912 13.16060650494088"
      },
      "geometry": {
        "type": "Point",
        "coordinates": [
          -27.801079493028915,
          47.75709480335725
        ]
      }
    },
    {
      "type": "Feature",
      "properties": {
        "norad_id": 40894,
        "name": "GAOFEN-9 01",
        "group": "resource",
        "lat": 73.11834358818271,
        "lon": 6.5676721214905065,
        "alt_km": 606.2762570183177,
        "timestamp": "2025-12-20T05:41:49.675510+00:00",
        "meta_object_name": "GAOFEN-9 01",
        "meta_object_id": "2015-047A",
        "meta_epoch": "2025-12-19T22:52:56.065152",
        "meta_mean_motion": 14.82438669,
        "meta_eccentricity": 0.00278129,
        "meta_inclination": 97.6533,
        "meta_ra_of_asc_node": 32.5972,
        "meta_arg_of_pericenter": 11.1374,
        "meta_mean_anomaly": 349.0449,
        "meta_ephemeris_type": 0,
        "meta_classification_type": "U",
        "meta_norad_cat_id": 40894,
        "meta_element_set_no": 999,
        "meta_rev_at_epoch": 55363,
        "meta_bstar": 0.00010379105,
        "meta_mean_motion_dot": 7.86e-06,
        "meta_mean_motion_ddot": 0,
        "tle_line1": "1 40894U 15047A   25353.95342668  .00000786  00000+0  10379-3 0  9996",
        "tle_line2": "2 40894  97.6533  32.5972 0027812  11.1374 349.0449 14.82438669553631"
      },
      "geometry": {
        "type": "Point",
        "coordinates": [
          6.5676721214905065,
          73.11834358818271
        ]
      }
    }
  ]
}